$$SOE
2460721.500000000, A.D. 2025-Feb-15 00:00:00.0000, 5.347726264684771E+06, -3.027932072462846E+08, -4.860672257177526E+07,
2460728.500000000, A.D. 2025-Feb-22 00:00:00.0000, 1.653687817095300E+07, -3.017307003903537E+08, -4.430057800851806E+07,
2460735.500000000, A.D. 2025-Mar-01 00:00:00.0000, 2.769781530232649E+07, -3.001541370176522E+08, -3.991896529471123E+07,
2460742.500000000, A.D. 2025-Mar-08 00:00:00.0000, 3.881088897620138E+07, -2.980593516576738E+08, -3.546844029628991E+07,
2460749.500000000, A.D. 2025-Mar-15 00:00:00.0000, 4.985597756214871E+07, -2.954427865709244E+08, -3.095583559619142E+07,
2460756.500000000, A.D. 2025-Mar-22 00:00:00.0000, 6.081248092827175E+07, -2.923015356975335E+08, -2.638826888520658E+07,
2460763.500000000, A.D. 2025-Mar-29 00:00:00.0000, 7.165931858243859E+07, -2.886333943774705E+08, -2.177315139120845E+07,
2460770.500000000, A.D. 2025-Apr-05 00:00:00.0000, 8.237493223586208E+07, -2.844369117921839E+08, -1.711819598810780E+07,
2460777.500000000, A.D. 2025-Apr-12 00:00:00.0000, 9.293729130401291E+07, -2.797114460862015E+08, -1.243142464762308E+07,
2460784.500000000, A.D. 2025-Apr-19 00:00:00.0000, 1.033239016407593E+08, -2.744572230780497E+08, -7.721175115552530E+06,
2460791.500000000, A.D. 2025-Apr-26 00:00:00.0000, 1.135118183042307E+08, -2.686753987507678E+08, -2.996106658005938E+06,
2460798.500000000, A.D. 2025-May-03 00:00:00.0000, 1.234776630378282E+08, -2.623681254403405E+08, 1.734795334209621E+06,
2460805.500000000, A.D. 2025-May-10 00:00:00.0000, 1.331976471063311E+08, -2.555386215883524E+08, 6.462216127495080E+06,
2460812.500000000, A.D. 2025-May-17 00:00:00.0000, 1.426476001786295E+08, -2.481912448999943E+08, 1.117651007960393E+07,
2460819.500000000, A.D. 2025-May-24 00:00:00.0000, 1.518030061294506E+08, -2.403315686822808E+08, 1.586770100721635E+07,
2460826.500000000, A.D. 2025-May-31 00:00:00.0000, 1.606390469062221E+08, -2.319664606851318E+08, 2.052548480813558E+07,
2460833.500000000, A.D. 2025-Jun-07 00:00:00.0000, 1.691306547965304E+08, -2.231041627632397E+08, 2.513923483812926E+07,
2460840.500000000, A.D. 2025-Jun-14 00:00:00.0000, 1.772525714606630E+08, -2.137543714034903E+08, 2.969801059103303E+07,
2460847.500000000, A.D. 2025-Jun-21 00:00:00.0000, 1.849794156675105E+08, -2.039283215957577E+08, 3.419056969968887E+07,
2460854.500000000, A.D. 2025-Jun-28 00:00:00.0000, 1.922857635869800E+08, -1.936388713189620E+08, 3.860538352082816E+07,
2460861.500000000, A.D. 2025-Jul-05 00:00:00.0000, 1.991462408355086E+08, -1.829005833694396E+08, 4.293065704405583E+07,
2460868.500000000, A.D. 2025-Jul-12 00:00:00.0000, 2.055356257328426E+08, -1.717298040629477E+08, 4.715435361418236E+07,
2460875.500000000, A.D. 2025-Jul-19 00:00:00.0000, 2.114289644888635E+08, -1.601447379262622E+08, 5.126422485357692E+07,
2460882.500000000, A.D. 2025-Jul-26 00:00:00.0000, 2.168016989033847E+08, -1.481655167659534E+08, 5.524784619370462E+07,
2460889.500000000, A.D. 2025-Aug-02 00:00:00.0000, 2.216298068332971E+08, -1.358142612112775E+08, 5.909265840800601E+07,
2460896.500000000, A.D. 2025-Aug-09 00:00:00.0000, 2.258899554180486E+08, -1.231151326680631E+08, 6.278601548675592E+07,
2460903.500000000, A.D. 2025-Aug-16 00:00:00.0000, 2.295596668361517E+08, -1.100943734957026E+08, 6.631523911199932E+07,
2460910.500000000, A.D. 2025-Aug-23 00:00:00.0000, 2.326174962592326E+08, -9.678033298964477E+07, 6.966767987711070E+07,
2460917.500000000, A.D. 2025-Aug-30 00:00:00.0000, 2.350432213498534E+08, -8.320347594290027E+07, 7.283078533030173E+07,
2460924.500000000, A.D. 2025-Sep-06 00:00:00.0000, 2.368180405064963E+08, -6.939637023122732E+07, 7.579217496804190E+07,
2460931.500000000, A.D. 2025-Sep-13 00:00:00.0000, 2.379247763561192E+08, -5.539365337178801E+07, 7.853972186846693E+07,
2460938.500000000, A.D. 2025-Sep-20 00:00:00.0000, 2.383480854608280E+08, -4.123197724951005E+07, 8.106164006961098E+07,
2460945.500000000, A.D. 2025-Sep-27 00:00:00.0000, 2.380746725149089E+08, -2.694992563476460E+07, 8.334657718685874E+07,
2460952.500000000, A.D. 2025-Oct-04 00:00:00.0000, 2.370935037577345E+08, -1.258790199838364E+07, 8.538371162263921E+07,
2460959.500000000, A.D. 2025-Oct-11 00:00:00.0000, 2.353960155089385E+08, 1.812012959034897E+06, 8.716285321686707E+07,
2460966.500000000, A.D. 2025-Oct-18 00:00:00.0000, 2.329763139756488E+08, 1.620623476881036E+07, 8.867454593936354E+07,
2460973.500000000, A.D. 2025-Oct-25 00:00:00.0000, 2.298313620048300E+08, 3.054987997478303E+07, 8.991017102625421E+07,
2460980.500000000, A.D. 2025-Nov-01 00:00:00.0000, 2.259611481318300E+08, 4.479700179498263E+07, 9.086204875746363E+07,
2460987.500000000, A.D. 2025-Nov-08 00:00:00.0000, 2.213688331876920E+08, 5.890085531869753E+07, 9.152353689141107E+07,
2460994.500000000, A.D. 2025-Nov-15 00:00:00.0000, 2.160608699208421E+08, 7.281418993864149E+07, 9.188912363420659E+07,
2461001.500000000, A.D. 2025-Nov-22 00:00:00.0000, 2.100470916029823E+08, 8.648956603151982E+07, 9.195451295228514E+07,
2461008.500000000, A.D. 2025-Nov-29 00:00:00.0000, 2.033407654683668E+08, 9.987969286326677E+07, 9.171670015465248E+07,
2461015.500000000, A.D. 2025-Dec-06 00:00:00.0000, 1.959586053440756E+08, 1.129377825576549E+08, 9.117403585630944E+07,
2461022.500000000, A.D. 2025-Dec-13 00:00:00.0000, 1.879207413968019E+08, 1.256179109486593E+08, 9.032627612550998E+07,
2461029.500000000, A.D. 2025-Dec-20 00:00:00.0000, 1.792506489614679E+08, 1.378753798771313E+08, 8.917461693374676E+07,
2461036.500000000, A.D. 2025-Dec-27 00:00:00.0000, 1.699750349350587E+08, 1.496670766437423E+08, 8.772171189792669E+07,
2461043.500000000, A.D. 2026-Jan-03 00:00:00.0000, 1.601236810256483E+08, 1.609518229417232E+08, 8.597167249431553E+07,
2461050.500000000, A.D. 2026-Jan-10 00:00:00.0000, 1.497292459335409E+08, 1.716907055962132E+08, 8.393005023724985E+07,
2461057.500000000, A.D. 2026-Jan-17 00:00:00.0000, 1.388270298433288E+08, 1.818473823579686E+08, 8.160380084255533E+07,
2461064.500000000, A.D. 2026-Jan-24 00:00:00.0000, 1.274547055366324E+08, 1.913883567067444E+08, 7.900123091843085E+07,
2461071.500000000, A.D. 2026-Jan-31 00:00:00.0000, 1.156520213188273E+08, 2.002832164174607E+08, 7.613192821339473E+07,
2461078.500000000, A.D. 2026-Feb-07 00:00:00.0000, 1.034604817347125E+08, 2.085048316155140E+08, 7.300667688880816E+07,
2461085.500000000, A.D. 2026-Feb-14 00:00:00.0000, 9.092301275383566E+07, 2.160295092585417E+08, 6.963735965552126E+07,
2461092.500000000, A.D. 2026-Feb-21 00:00:00.0000, 7.808361850948077E+07, 2.228371028336492E+08, 6.603684896189064E+07,
2461099.500000000, A.D. 2026-Feb-28 00:00:00.0000, 6.498703523002815E+07, 2.289110779079822E+08, 6.221888981790918E+07,
2461106.500000000, A.D. 2026-Mar-07 00:00:00.0000, 5.167838678138010E+07, 2.342385322678964E+08, 5.819797677680397E+07,
2461113.500000000, A.D. 2026-Mar-14 00:00:00.0000, 3.820285059240118E+07, 2.388101701723892E+08, 5.398922716710256E+07,
2461120.500000000, A.D. 2026-Mar-21 00:00:00.0000, 2.460534115800005E+07, 2.426202365150598E+08, 4.960825313877574E+07,
2461127.500000000, A.D. 2026-Mar-28 00:00:00.0000, 1.093021374981282E+07, 2.456664156080018E+08, 4.507103511126319E+07,
2461134.500000000, A.D. 2026-Apr-04 00:00:00.0000, -2.779008516505813E+06, 2.479496979411819E+08, 4.039379870804194E+07,
2461141.500000000, A.D. 2026-Apr-11 00:00:00.0000, -1.647988113697064E+07, 2.494742193222773E+08, 3.559289697288397E+07,
2461148.500000000, A.D. 2026-Apr-18 00:00:00.0000, -3.013125609267302E+07, 2.502470773906750E+08, 3.068469940005223E+07,
2461155.500000000, A.D. 2026-Apr-25 00:00:00.0000, -4.369347000739232E+07, 2.502781305536352E+08, 2.568548899587293E+07,
2461162.500000000, A.D. 2026-May-02 00:00:00.0000, -5.712850226803102E+07, 2.495797841908265E+08, 2.061136825866628E+07,
2461169.500000000, A.D. 2026-May-09 00:00:00.0000, -7.040010342979869E+07, 2.481667686389803E+08, 1.547817465439793E+07,
2461176.500000000, A.D. 2026-May-16 00:00:00.0000, -8.347389462903079E+07, 2.460559133220463E+08, 1.030140590404603E+07,
2461183.500000000, A.D. 2026-May-23 00:00:00.0000, -9.631743956375782E+07, 2.432659219081165E+08, 5.096155263430238E+06,
2461190.500000000, A.D. 2026-May-30 00:00:00.0000, -1.089002930745568E+08, 2.398171522393503E+08, -1.229431247213334E+05,
2461197.500000000, A.D. 2026-Jun-06 00:00:00.0000, -1.211940288056834E+08, 2.357314006410188E+08, -5.341759393418208E+06,
2461204.500000000, A.D. 2026-Jun-13 00:00:00.0000, -1.331722446179149E+08, 2.310316931000308E+08, -1.054670444559923E+07,
2461211.500000000, A.D. 2026-Jun-20 00:00:00.0000, -1.448105487087848E+08, 2.257420880595247E+08, -1.572475809796266E+07,
2461218.500000000, A.D. 2026-Jun-27 00:00:00.0000, -1.560865305744421E+08, 2.198874918565940E+08, -2.086348942598271E+07,
2461225.500000000, A.D. 2026-Jul-04 00:00:00.0000, -1.669797191846837E+08, 2.134934869532267E+08, -2.595107009422034E+07,
2461232.500000000, A.D. 2026-Jul-11 00:00:00.0000, -1.774715303856440E+08, 2.065861733837800E+08, -3.097628144591438E+07,
2461239.500000000, A.D. 2026-Jul-18 00:00:00.0000, -1.875452055590168E+08, 1.991920236826480E+08, -3.592851609840864E+07,
2461246.500000000, A.D. 2026-Jul-25 00:00:00.0000, -1.971857434618457E+08, 1.913377512613743E+08, -4.079777476950783E+07,
2461253.500000000, A.D. 2026-Aug-01 00:00:00.0000, -2.063798269600430E+08, 1.830501919292639E+08, -4.557465903537057E+07,
2461260.500000000, A.D. 2026-Aug-08 00:00:00.0000, -2.151157460088968E+08, 1.743561980845332E+08, -5.025036069382291E+07,
2461267.500000000, A.D. 2026-Aug-15 00:00:00.0000, -2.233833178415394E+08, 1.652825454510597E+08, -5.481664833750033E+07,
2461274.500000000, A.D. 2026-Aug-22 00:00:00.0000, -2.311738063189965E+08, 1.558558529055739E+08, -5.926585151905240E+07,
2461281.500000000, A.D. 2026-Aug-29 00:00:00.0000, -2.384798437529916E+08, 1.461025132827536E+08, -6.359084291295026E+07,
2461288.500000000, A.D. 2026-Sep-05 00:00:00.0000, -2.452953539169707E+08, 1.360486315162796E+08, -6.778501935236377E+07,
$$EOE